KUIPER-00071            
1 64818U 25151C   25214.44818839 -.00070437  00000+0 -20100-2 0  9997
2 64818  51.8783 204.7682 0004132 189.1910 170.9001 15.35624517  2626
KUIPER-00072            
1 64819U 25151D   25214.19160286  .00024240  00000+0  70390-3 0  9992
2 64819  51.8769 206.0415 0004991 208.9690 151.1019 15.35348786  2595
KUIPER-00073            
1 64820U 25151E   25214.45077940  .00024369  00000+0  70472-3 0  9990
2 64820  51.8786 204.7874 0004954 206.5043 153.5690 15.35475452  3813
KUIPER-00074            
1 64821U 25151F   25214.51518016  .00025806  00000+0  74329-3 0  9994
2 64821  51.8773 204.4610 0005332 207.4550 152.6155 15.35566946  2644
KUIPER-00075            
1 64822U 25151G   25214.18893644  .00022807  00000+0  65785-3 0  9995
2 64822  51.8784 206.0321 0005015 197.8696 162.2114 15.35596384  2590
KUIPER-00076            
1 64823U 25151H   25214.45117335  .00022041  00000+0  63949-3 0  9992
2 64823  51.8771 204.7815 0004910 207.3033 152.7696 15.35434810  2634
KUIPER-00077            
1 64824U 25151J   25214.19277045  .00024431  00000+0  71114-3 0  9997
2 64824  51.8784 206.0560 0005716 212.2558 147.8079 15.35265452  2581
KUIPER-00078            
1 64825U 25151K   25214.45277928  .00024417  00000+0  70982-3 0  9993
2 64825  51.8775 204.7953 0005694 216.4134 143.6465 15.35307168  2634
